GSAT-7                  
1 39234U 13044B   22110.54121747 -.00000079  00000+0  00000+0 0  9995
2 39234   0.0869  98.6883 0006014 183.2606 195.4722  1.00271394 30106
AMOS-4                  
1 39237U 13045A   22110.61693633  .00000004  00000+0  00000+0 0  9992
2 39237   0.0187 141.1194 0002950 235.1199 119.5304  1.00272448 31734
AEHF-3 (USA 246)        
1 39256U 13050A   22110.62015656  .00000132  00000+0  00000+0 0  9995
2 39256   1.5662  70.4473 0051100 187.7148  18.7277  1.00275455 30447
ASTRA 2E                
1 39285U 13056A   22110.53214678  .00000148  00000+0  00000+0 0  9995
2 39285   0.0610  11.5776 0002298  17.8926  39.1745  1.00272453 31217
FM-6                    
1 39360U 13058A   22110.48656024 -.00000019  00000+0  00000+0 0  9998
2 39360   0.0325 275.1508 0000651 341.2196  11.1753  1.00270540 30830
RADUGA-1M 3             
1 39375U 13062A   22110.57410615  .00000154  00000+0  00000+0 0  9992
2 39375   2.0865  90.4602 0004170 131.6364 228.2183  1.00272818 30892
SES-8                   
1 39460U 13071A   22110.47362344 -.00000272  00000+0  00000+0 0  9993
2 39460   0.0106 217.0866 0002734 202.2549  54.7059  1.00270852 29209
INMARSAT 5-F1           
1 39476U 13073A   22110.17688453  .00000027  00000+0  00000+0 0  9998
2 39476   0.0110 231.1857 0000206 293.5913 169.7366  1.00269817 30353
TKSAT-1 (TUPAC KATARI)  
1 39481U 13075A   22110.50903399 -.00000197  00000+0  00000+0 0  9991
2 39481   0.0535  63.4947 0002747 318.0233 283.1071  1.00270552 30369
EXPRESS-AM5             
1 39487U 13077A   22110.33911804 -.00000282  00000+0  00000+0 0  9995
2 39487   0.0170 308.8429 0000982  54.9562 106.7314  1.00270695 31124
GSAT-14                 
1 39498U 14001A   22110.54121747 -.00000080  00000+0  00000+0 0  9993
2 39498   0.0604 103.0025 0002728 200.2358 174.1977  1.00271704 30174
THAICOM 6               
1 39500U 14002A   22110.54208965 -.00000124  00000+0  00000+0 0  9995
2 39500   0.0659 116.6067 0003466 325.9216  39.7358  1.00273212 30234
TDRS 12                 
1 39504U 14004A   22110.44649859 -.00000275  00000+0  00000+0 0  9998
2 39504   3.9118 346.2981 0004449 100.5907 241.2918  1.00266482 29042
ABS-2                   
1 39508U 14006A   22110.54139190 -.00000089  00000+0  00000+0 0  9990
2 39508   0.0555  62.6070 0003795 322.5840  93.2523  1.00271334 30065
ATHENA-FIDUS            
1 39509U 14006B   22110.58707587  .00000151  00000+0  00000+0 0  9995
2 39509   0.0124 256.4873 0001640 156.6419  44.6629  1.00273491 29855
TURKSAT 4A              
1 39522U 14007A   22110.59631642  .00000143  00000+0  00000+0 0  9991
2 39522   0.0327 261.7117 0002349  74.9924 128.6087  1.00271113 29765
EXPRESS-AT1             
1 39612U 14010A   22109.24424321  .00000081  00000+0  00000+0 0  9990
2 39612   0.0246 324.6578 0000443 200.0828 186.4811  1.00265893 29803
EXPRESS-AT2             
1 39613U 14010B   22110.55430017 -.00000284  00000+0  00000+0 0  9992
2 39613   0.0166 316.3506 0000210 137.3840  94.2820  1.00270982 29656
AMAZONAS 4A             
1 39616U 14011A   22110.51165052 -.00000255  00000+0  00000+0 0  9994
2 39616   0.0168 275.7529 0002272 150.1876 252.8411  1.00271991 29475
ASTRA 5B                
1 39617U 14011B   22110.53275733  .00000152  00000+0  00000+0 0  9990
2 39617   0.0707 302.9639 0002908  99.3858  29.5294  1.00269858 29444
IRNSS-1B                
1 39635U 14017A   22110.00206556  .00000090  00000+0  00000+0 0  9996
2 39635  28.8625 266.0788 0022008 178.5659 179.1477  1.00271906 29552
LUCH 5V                 
1 39727U 14023A   22110.54531671 -.00000271  00000+0  00000+0 0  9995
2 39727   1.3638  74.2877 0003378 357.1141  68.2598  1.00274105 29132
KAZSAT-3                
1 39728U 14023B   22110.58543822  .00000058  00000+0  00000+0 0  9993
2 39728   0.0103 203.1717 0000965 353.5367 281.1939  1.00269829 27221
EUTELSAT 3B             
1 39773U 14030A   22110.38330220  .00000018  00000+0  00000+0 0  9991
2 39773   0.0686   3.2738 0003317 149.8715 196.3959  1.00272152 28836
ASIASAT 8 (AMOS-7)      
1 40107U 14046A   22110.31033608 -.00000035  00000+0  00000+0 0  9994
2 40107   0.0185 226.6770 0001829 168.5242 281.0130  1.00270297 86913
ASIASAT 6               
1 40141U 14052A   22110.57063403 -.00000365  00000+0  00000+0 0  9999
2 40141   0.0366 105.2242 0001139 313.3948 115.3504  1.00270549 27936
OPTUS 10                
1 40146U 14054A   22110.40755627 -.00000149  00000+0  00000+0 0  9994
2 40146   0.0195 235.1905 0002165 174.1567 101.8568  1.00270599 27801
MEASAT-3B               
1 40147U 14054B   22110.54470619 -.00000245  00000+0  00000+0 0  9992
2 40147   0.0563  60.5126 0003057 338.6734  97.0114  1.00272819 27686
LUCH (OLYMP)            
1 40258U 14058A   22110.68228744  .00000031  00000+0  00000+0 0  9996
2 40258   0.0463  91.1093 0000655  41.3647  23.7905  1.00270391 27714
HIMAWARI-8              
1 40267U 14060A   22110.55447462 -.00000279  00000+0  00000+0 0  9990
2 40267   0.0174 182.4257 0001158 234.4871 131.9630  1.00267990 27530
IRNSS-1C                
1 40269U 14061A   22110.54296184 -.00000162  00000+0  00000+0 0  9996
2 40269   2.8401 131.3661 0018719   5.4111 350.3363  1.00271102 27452
INTELSAT 30 (IS-30)     
1 40271U 14062A   22110.50746406 -.00000153  00000+0  00000+0 0  9993
2 40271   0.0168 255.4673 0001735 230.5269 170.1933  1.00270759 27358
ARSAT 1                 
1 40272U 14062B   22110.51208661 -.00000262  00000+0  00000+0 0  9992
2 40272   0.0221 287.5533 0001615 111.7666 281.7982  1.00270544 27667
EXPRESS-AM6             
1 40277U 14064A   22110.53703100  .00000095  00000+0  00000+0 0  9992
2 40277   0.0231 301.7182 0000415 145.3712   7.8524  1.00274647 27447
GSAT-16                 
1 40332U 14078A   22110.53746709  .00000082  00000+0  00000+0 0  9997
2 40332   0.0443 113.5240 0006776 323.4656  20.1841  1.00273626 26872
DIRECTV 14              
1 40333U 14078B   22110.53893611 -.00000128  00000+0  00000+0 0  9995
2 40333   0.0379  84.1810 0000028  54.6271 164.6038  1.00270803 26839
YAMAL 401               
1 40345U 14082A   22110.54435733 -.00000230  00000+0  00000+0 0  9995
2 40345   0.0157 180.7532 0000822 299.7797  13.9850  1.00267835 26690
ASTRA 2G                
1 40364U 14089A   22110.53205957  .00000147  00000+0  00000+0 0  9991
2 40364   0.0475  50.0426 0004855 357.5787  20.6827  1.00270857 26739
FENGYUN 2G              
1 40367U 14090A   22110.54627611 -.00000302  00000+0  00000+0 0  9996
2 40367   1.7901  89.9243 0003240 347.6615  67.1895  1.00262768 26776
MUOS-3                  
1 40374U 15002A   22110.37990069 -.00000130  00000+0  00000+0 0  9998
2 40374   2.5453  10.4415 0051537 178.7185 140.6127  1.00271479 26350
INMARSAT 5-F2           
1 40384U 15005A   22110.44370760 -.00000287  00000+0  00000+0 0  9993
2 40384   0.0114 231.2636 0000230 191.5402 250.4163  1.00269468 25764
ABS-3A                  
1 40424U 15010A   22110.31059772 -.00000028  00000+0  00000+0 0  9990
2 40424   0.0138 255.9132 0002150  59.2895   1.9778  1.00272805 26152
EUTELSAT 115 WEST B     
1 40425U 15010B   22110.54205087 -.00000027  00000+0  00000+0 0  9997
2 40425   0.0110 101.3195 0000361 182.2236   5.2914  1.00272244 26172
EXPRESS-AM7             
1 40505U 15012A   22110.58993030  .00000148  00000+0  00000+0 0  9997
2 40505   0.0134 265.3428 0002800 118.6650  77.0313  1.00273617 25781
IRNSS-1D                
1 40547U 15018A   22110.33362330 -.00000294  00000+0  00000+0 0  9998
2 40547  28.6905 266.1103 0022447 178.5826 355.5997  1.00272959 25765
BEIDOU 17               
1 40549U 15019A   22110.54461897 -.00000151  00000+0  00000+0 0  9994
2 40549  51.9826 313.4249 0035883 188.0117 355.8648  1.00255220 25850
THOR 7                  
1 40613U 15022A   22110.31103381 -.00000010  00000+0  00000+0 0  9990
2 40613   0.0279 123.9303 0002740 271.4573 284.3036  1.00270887 25586
TURKMENALEM52E/MONACOSAT
1 40617U 15023A   22110.59739748  .00000101  00000+0  00000+0 0  9997
2 40617   0.0126 236.7790 0002390 171.6673  67.3041  1.00273451 25616
DIRECTV 15              
1 40663U 15026A   22110.42814396 -.00000104  00000+0  00000+0 0  9990
2 40663   0.0117 213.1882 0000486 195.5063 211.0505  1.00268762 25230
SKY MEXICO-1            
1 40664U 15026B   22110.51069112 -.00000236  00000+0  00000+0 0  9995
2 40664   0.0050 251.9616 0002513 157.4063 264.2827  1.00271251 25225
METEOSAT-11 (MSG-4)     
1 40732U 15034A   22110.31112104 -.00000007  00000+0  00000+0 0  9994
2 40732   0.2029  28.0278 0000811  52.6916 239.4956  1.00267100 24794
STAR ONE C4             
1 40733U 15034B   22110.36891122 -.00000266  00000+0  00000+0 0  9991
2 40733   0.0386  23.7070 0002838   3.9346 243.5946  1.00270111 24799
WGS F7 (USA 263)        
1 40746U 15036A   22110.58144231  .00000015  00000+0  00000+0 0  9994
2 40746   0.0156 273.8305 0000137 332.0691 347.0419  1.00270724 24645
INTELSAT 34 (IS-34)     
1 40874U 15039A   22110.44362038 -.00000287  00000+0  00000+0 0  9993
2 40874   0.0219 306.6126 0000494 202.0368 164.0705  1.00270477 24398
EUTELSAT 8 WEST B       
1 40875U 15039B   22110.38129618 -.00000067  00000+0  00000+0 0  9998
2 40875   0.0697   2.4355 0005812  39.2253 296.0504  1.00271973 24425
GSAT-6                  
1 40880U 15041A   22110.54287462 -.00000163  00000+0  00000+0 0  9994
2 40880   0.0273 105.6213 0002819 287.7226  93.1977  1.00271253 24380
INMARSAT 5-F3           
1 40882U 15042A   22110.58649584  .00000048  00000+0  00000+0 0  9999
2 40882   0.0114 231.6168 0000184 343.3801  24.3763  1.00272277 24337
MUOS-4                  
1 40887U 15044A   22110.54156635 -.00000096  00000+0  00000+0 0  9996
2 40887   2.5546   5.4981 0057961   1.0106 112.0944  1.00271251 24336
TJS-1                   
1 40892U 15046A   22110.60414148 -.00000159  00000+0  00000+0 0  9997
2 40892   0.1146  86.1809 0006774 321.2480 173.7108  1.00272005 24339
